0 THOR ABLESTAR DEB
1 00537U 61015FW  13283.43212789  .00000237  00000-0  35992-3 0  5451
2 00537 067.2236 286.8789 0174946 144.3702 006.8929 13.61520398384336
0 THOR ABLESTAR DEB
1 00537U 61015FW  13286.13891757  .00000205  00000-0  32212-3 0  5467
2 00537 067.2236 280.6950 0174810 142.3095 314.2034 13.61522168384702
0 THOR ABLESTAR DEB
1 00537U 61015FW  13288.34574208  .00000312  00000-0  44769-3 0  5471
2 00537 067.2239 275.6533 0174733 140.6398 330.9453 13.61524015385004
0 THOR ABLESTAR DEB
1 00537U 61015FW  13290.41120191  .00000330  00000-0  46912-3 0  5483
2 00537 067.2242 270.9348 0174593 139.0528 014.8276 13.61525808385283
0 THOR ABLESTAR DEB
1 00537U 61015FW  13293.34888728  .00000511  00000-0  68379-3 0  5498
2 00537 067.2242 264.2250 0174410 136.6966 014.0641 13.61528932385681
0 THOR ABLESTAR DEB
1 00537U 61015FW  13295.39136931  .00000558  00000-0  73893-3 0  5507
2 00537 067.2241 259.5595 0174360 135.1089 305.3762 13.61531753385969
